[{"OBJECT_NAME":"STARLINK-5237","OBJECT_ID":"2022-141AR","EPOCH":"2026-03-19T22:01:50.208672","MEAN_MOTION":15.08843267,"ECCENTRICITY":0.0001315,"INCLINATION":53.2181,"RA_OF_ASC_NODE":308.0889,"ARG_OF_PERICENTER":83.3222,"MEAN_ANOMALY":276.792,"EPHEMERIS_TYPE":0,"CLASSIFICATION_TYPE":"U","NORAD_CAT_ID":54196,"ELEMENT_SET_NO":999,"REV_AT_EPOCH":18754,"BSTAR":-3.102e-5,"MEAN_MOTION_DOT":-7.82e-6,"MEAN_MOTION_DDOT":0},{"OBJECT_NAME":"STARLINK-5246","OBJECT_ID":"2022-141AT","EPOCH":"2026-03-19T21:56:32.407872","MEAN_MOTION":15.08837544,"ECCENTRICITY":0.0001351,"INCLINATION":53.2186,"RA_OF_ASC_NODE":308.0663,"ARG_OF_PERICENTER":95.0696,"MEAN_ANOMALY":265.0451,"EPHEMERIS_TYPE":0,"CLASSIFICATION_TYPE":"U","NORAD_CAT_ID":54198,"ELEMENT_SET_NO":999,"REV_AT_EPOCH":18754,"BSTAR":-2.4634e-5,"MEAN_MOTION_DOT":-6.8e-6,"MEAN_MOTION_DDOT":0},{"OBJECT_NAME":"STARLINK-5244","OBJECT_ID":"2022-141AU","EPOCH":"2026-03-19T22:07:08.667840","MEAN_MOTION":15.0884099,"ECCENTRICITY":0.0001195,"INCLINATION":53.2179,"RA_OF_ASC_NODE":308.1127,"ARG_OF_PERICENTER":88.0614,"MEAN_ANOMALY":272.0515,"EPHEMERIS_TYPE":0,"CLASSIFICATION_TYPE":"U","NORAD_CAT_ID":54199,"ELEMENT_SET_NO":999,"REV_AT_EPOCH":18754,"BSTAR":6.2344e-6,"MEAN_MOTION_DOT":-1.89e-6,"MEAN_MOTION_DDOT":0},{"OBJECT_NAME":"STARLINK-5250","OBJECT_ID":"2022-141AV","EPOCH":"2026-03-20T00:56:43.301184","MEAN_MOTION":15.08826694,"ECCENTRICITY":0.000136,"INCLINATION":53.2176,"RA_OF_ASC_NODE":307.4232,"ARG_OF_PERICENTER":92.2964,"MEAN_ANOMALY":267.8184,"EPHEMERIS_TYPE":0,"CLASSIFICATION_TYPE":"U","NORAD_CAT_ID":54200,"ELEMENT_SET_NO":999,"REV_AT_EPOCH":18756,"BSTAR":8.2394e-5,"MEAN_MOTION_DOT":1.023e-5,"MEAN_MOTION_DDOT":0},{"OBJECT_NAME":"STARLINK-5199","OBJECT_ID":"2022-141AW","EPOCH":"2026-03-19T22:17:45.657888","MEAN_MOTION":15.08835576,"ECCENTRICITY":0.0001301,"INCLINATION":53.218,"RA_OF_ASC_NODE":308.1517,"ARG_OF_PERICENTER":88.9825,"MEAN_ANOMALY":271.1316,"EPHEMERIS_TYPE":0,"CLASSIFICATION_TYPE":"U","NORAD_CAT_ID":54201,"ELEMENT_SET_NO":999,"REV_AT_EPOCH":18754,"BSTAR":-4.2368e-5,"MEAN_MOTION_DOT":-9.62e-6,"MEAN_MOTION_DDOT":0},{"OBJECT_NAME":"STARLINK-5205","OBJECT_ID":"2022-141AX","EPOCH":"2026-03-19T21:35:18.649824","MEAN_MOTION":15.08837206,"ECCENTRICITY":0.0001195,"INCLINATION":53.2184,"RA_OF_ASC_NODE":307.9737,"ARG_OF_PERICENTER":88.6126,"MEAN_ANOMALY":271.5003,"EPHEMERIS_TYPE":0,"CLASSIFICATION_TYPE":"U","NORAD_CAT_ID":54202,"ELEMENT_SET_NO":999,"REV_AT_EPOCH":18754,"BSTAR":6.3022e-5,"MEAN_MOTION_DOT":7.15e-6,"MEAN_MOTION_DDOT":0},{"OBJECT_NAME":"STARLINK-5247","OBJECT_ID":"2022-141AY","EPOCH":"2026-03-20T01:01:59.863872","MEAN_MOTION":15.08841774,"ECCENTRICITY":0.0001452,"INCLINATION":53.2168,"RA_OF_ASC_NODE":307.4475,"ARG_OF_PERICENTER":91.044,"MEAN_ANOMALY":269.0718,"EPHEMERIS_TYPE":0,"CLASSIFICATION_TYPE":"U","NORAD_CAT_ID":54203,"ELEMENT_SET_NO":999,"REV_AT_EPOCH":18756,"BSTAR":4.7606e-5,"MEAN_MOTION_DOT":4.7e-6,"MEAN_MOTION_DDOT":0},{"OBJECT_NAME":"STARLINK-5241","OBJECT_ID":"2022-141AZ","EPOCH":"2026-03-20T00:30:10.217376","MEAN_MOTION":15.08838181,"ECCENTRICITY":0.0001351,"INCLINATION":53.2175,"RA_OF_ASC_NODE":307.3114,"ARG_OF_PERICENTER":88.7856,"MEAN_ANOMALY":271.3291,"EPHEMERIS_TYPE":0,"CLASSIFICATION_TYPE":"U","NORAD_CAT_ID":54204,"ELEMENT_SET_NO":999,"REV_AT_EPOCH":18756,"BSTAR":3.2803e-6,"MEAN_MOTION_DOT":-2.36e-6,"MEAN_MOTION_DDOT":0},{"OBJECT_NAME":"STARLINK-5249","OBJECT_ID":"2022-141BA","EPOCH":"2026-03-20T00:40:46.491168","MEAN_MOTION":15.0884968,"ECCENTRICITY":0.0001426,"INCLINATION":53.2178,"RA_OF_ASC_NODE":307.3564,"ARG_OF_PERICENTER":84.2479,"MEAN_ANOMALY":275.8675,"EPHEMERIS_TYPE":0,"CLASSIFICATION_TYPE":"U","NORAD_CAT_ID":54205,"ELEMENT_SET_NO":999,"REV_AT_EPOCH":18756,"BSTAR":1.4404e-5,"MEAN_MOTION_DOT":-5.9e-7,"MEAN_MOTION_DDOT":0},{"OBJECT_NAME":"STARLINK-5264","OBJECT_ID":"2022-141BB","EPOCH":"2026-03-19T23:23:19.671072","MEAN_MOTION":15.08825035,"ECCENTRICITY":0.0001133,"INCLINATION":53.2169,"RA_OF_ASC_NODE":272.7874,"ARG_OF_PERICENTER":80.9366,"MEAN_ANOMALY":279.1754,"EPHEMERIS_TYPE":0,"CLASSIFICATION_TYPE":"U","NORAD_CAT_ID":54206,"ELEMENT_SET_NO":999,"REV_AT_EPOCH":18804,"BSTAR":0.0001228,"MEAN_MOTION_DOT":1.666e-5,"MEAN_MOTION_DDOT":0},{"OBJECT_NAME":"STARLINK-5262","OBJECT_ID":"2022-141BC","EPOCH":"2026-03-20T00:35:27.976704","MEAN_MOTION":15.0884402,"ECCENTRICITY":0.0001461,"INCLINATION":53.2178,"RA_OF_ASC_NODE":307.3352,"ARG_OF_PERICENTER":86.3271,"MEAN_ANOMALY":273.7888,"EPHEMERIS_TYPE":0,"CLASSIFICATION_TYPE":"U","NORAD_CAT_ID":54207,"ELEMENT_SET_NO":999,"REV_AT_EPOCH":18756,"BSTAR":3.3767e-5,"MEAN_MOTION_DOT":2.5e-6,"MEAN_MOTION_DDOT":0},{"OBJECT_NAME":"STARLINK-5255","OBJECT_ID":"2022-141BD","EPOCH":"2026-03-19T23:53:49.596288","MEAN_MOTION":15.08846324,"ECCENTRICITY":0.0001294,"INCLINATION":53.2173,"RA_OF_ASC_NODE":282.9033,"ARG_OF_PERICENTER":91.9504,"MEAN_ANOMALY":268.1637,"EPHEMERIS_TYPE":0,"CLASSIFICATION_TYPE":"U","NORAD_CAT_ID":54208,"ELEMENT_SET_NO":999,"REV_AT_EPOCH":18790,"BSTAR":8.5839e-5,"MEAN_MOTION_DOT":1.079e-5,"MEAN_MOTION_DDOT":0},{"OBJECT_NAME":"STARLINK-5259","OBJECT_ID":"2022-141BE","EPOCH":"2026-03-19T21:31:20.163360","MEAN_MOTION":15.0883808,"ECCENTRICITY":0.0001631,"INCLINATION":53.2182,"RA_OF_ASC_NODE":297.9596,"ARG_OF_PERICENTER":93.9606,"MEAN_ANOMALY":266.1572,"EPHEMERIS_TYPE":0,"CLASSIFICATION_TYPE":"U","NORAD_CAT_ID":54209,"ELEMENT_SET_NO":999,"REV_AT_EPOCH":18768,"BSTAR":7.8654e-5,"MEAN_MOTION_DOT":9.64e-6,"MEAN_MOTION_DDOT":0},{"OBJECT_NAME":"STARLINK-5464","OBJECT_ID":"2022-175A","EPOCH":"2026-03-20T03:16:32.330784","MEAN_MOTION":15.08837977,"ECCENTRICITY":0.0001477,"INCLINATION":53.2199,"RA_OF_ASC_NODE":352.4174,"ARG_OF_PERICENTER":86.4588,"MEAN_ANOMALY":273.6573,"EPHEMERIS_TYPE":0,"CLASSIFICATION_TYPE":"U","NORAD_CAT_ID":54758,"ELEMENT_SET_NO":999,"REV_AT_EPOCH":18156,"BSTAR":1.7296e-5,"MEAN_MOTION_DOT":-1.3e-7,"MEAN_MOTION_DDOT":0},{"OBJECT_NAME":"STARLINK-5215","OBJECT_ID":"2022-175B","EPOCH":"2026-03-20T03:21:50.875488","MEAN_MOTION":15.08842775,"ECCENTRICITY":0.0001323,"INCLINATION":53.2195,"RA_OF_ASC_NODE":352.4341,"ARG_OF_PERICENTER":88.9221,"MEAN_ANOMALY":271.1923,"EPHEMERIS_TYPE":0,"CLASSIFICATION_TYPE":"U","NORAD_CAT_ID":54759,"ELEMENT_SET_NO":999,"REV_AT_EPOCH":18156,"BSTAR":3.8192e-5,"MEAN_MOTION_DOT":3.2e-6,"MEAN_MOTION_DDOT":0},{"OBJECT_NAME":"STARLINK-5220","OBJECT_ID":"2022-175C","EPOCH":"2026-03-20T00:07:45.595776","MEAN_MOTION":15.0883091,"ECCENTRICITY":0.0001333,"INCLINATION":53.2189,"RA_OF_ASC_NODE":358.0034,"ARG_OF_PERICENTER":91.0502,"MEAN_ANOMALY":269.0643,"EPHEMERIS_TYPE":0,"CLASSIFICATION_TYPE":"U","NORAD_CAT_ID":54760,"ELEMENT_SET_NO":999,"REV_AT_EPOCH":18147,"BSTAR":2.7711e-5,"MEAN_MOTION_DOT":1.53e-6,"MEAN_MOTION_DDOT":0},{"OBJECT_NAME":"STARLINK-5202","OBJECT_ID":"2022-175D","EPOCH":"2026-03-20T00:13:03.707616","MEAN_MOTION":15.0883911,"ECCENTRICITY":0.0001493,"INCLINATION":53.2196,"RA_OF_ASC_NODE":358.0248,"ARG_OF_PERICENTER":84.1192,"MEAN_ANOMALY":275.997,"EPHEMERIS_TYPE":0,"CLASSIFICATION_TYPE":"U","NORAD_CAT_ID":54761,"ELEMENT_SET_NO":999,"REV_AT_EPOCH":18147,"BSTAR":2.0367e-6,"MEAN_MOTION_DOT":-2.56e-6,"MEAN_MOTION_DDOT":0}]
