STARLINK-5237           
1 54196U 22141AR  26078.91794223 -.00000782  00000+0 -31020-4 0  9993
2 54196  53.2181 308.0889 0001315  83.3222 276.7920 15.08843267187545
STARLINK-5246           
1 54198U 22141AT  26078.91426398 -.00000680  00000+0 -24634-4 0  9990
2 54198  53.2186 308.0663 0001351  95.0696 265.0451 15.08837544187548
STARLINK-5244           
1 54199U 22141AU  26078.92162810 -.00000189  00000+0  62344-5 0  9992
2 54199  53.2179 308.1127 0001195  88.0614 272.0515 15.08840990187543
STARLINK-5250           
1 54200U 22141AV  26079.03939006  .00001023  00000+0  82394-4 0  9990
2 54200  53.2176 307.4232 0001360  92.2964 267.8184 15.08826694187562
STARLINK-5199           
1 54201U 22141AW  26078.92900067 -.00000962  00000+0 -42368-4 0  9993
2 54201  53.2180 308.1517 0001301  88.9825 271.1316 15.08835576187547
STARLINK-5205           
1 54202U 22141AX  26078.89952141  .00000715  00000+0  63022-4 0  9994
2 54202  53.2184 307.9737 0001195  88.6126 271.5003 15.08837206187544
STARLINK-5247           
1 54203U 22141AY  26079.04305398  .00000470  00000+0  47606-4 0  9997
2 54203  53.2168 307.4475 0001452  91.0440 269.0718 15.08841774187566
STARLINK-5241           
1 54204U 22141AZ  26079.02095159 -.00000236  00000+0  32803-5 0  9992
2 54204  53.2175 307.3114 0001351  88.7856 271.3291 15.08838181187566
STARLINK-5249           
1 54205U 22141BA  26079.02831587 -.00000059  00000+0  14404-4 0  9995
2 54205  53.2178 307.3564 0001426  84.2479 275.8675 15.08849680187565
STARLINK-5264           
1 54206U 22141BB  26078.97453323  .00001666  00000+0  12280-3 0  9990
2 54206  53.2169 272.7874 0001133  80.9366 279.1754 15.08825035188045
STARLINK-5262           
1 54207U 22141BC  26079.02462936  .00000250  00000+0  33767-4 0  9990
2 54207  53.2178 307.3352 0001461  86.3271 273.7888 15.08844020187560
STARLINK-5255           
1 54208U 22141BD  26078.99571292  .00001079  00000+0  85839-4 0  9999
2 54208  53.2173 282.9033 0001294  91.9504 268.1637 15.08846324187902
STARLINK-5259           
1 54209U 22141BE  26078.89676115  .00000964  00000+0  78654-4 0  9998
2 54209  53.2182 297.9596 0001631  93.9606 266.1572 15.08838080187684
STARLINK-5464           
1 54758U 22175A   26079.13648531 -.00000013  00000+0  17296-4 0  9994
2 54758  53.2199 352.4174 0001477  86.4588 273.6573 15.08837977181563
STARLINK-5215           
1 54759U 22175B   26079.14017217  .00000320  00000+0  38192-4 0  9995
2 54759  53.2195 352.4341 0001323  88.9221 271.1923 15.08842775181561
STARLINK-5220           
1 54760U 22175C   26079.00538884  .00000153  00000+0  27711-4 0  9999
2 54760  53.2189 358.0034 0001333  91.0502 269.0643 15.08830910181478
STARLINK-5202           
1 54761U 22175D   26079.00907069 -.00000256  00000+0  20367-5 0  9991
2 54761  53.2196 358.0248 0001493  84.1192 275.9970 15.08839110181479
